IRIDIUM 155             
1 43573U 18061E   25358.89910270  .00000045  00000+0  90338-5 0  9993
2 43573  86.3980 129.5564 0002163  99.2443 260.8997 14.34218010388377
IRIDIUM 154             
1 43574U 18061F   25359.29868456  .00000074  00000+0  19351-4 0  9994
2 43574  86.3983 129.5144 0002042  93.7928 266.3502 14.34218519388487
IRIDIUM 163             
1 43575U 18061G   25359.07035094  .00000187  00000+0  59602-4 0  9993
2 43575  86.3984 129.5308 0001873  98.8167 261.3241 14.34218925388423
IRIDIUM 156             
1 43576U 18061H   25359.32405642  .00000328  00000+0  10989-3 0  9993
2 43576  86.3987 129.4318 0002180  95.4758 264.6687 14.34218610388452
IRIDIUM 164             
1 43577U 18061J   25359.30503431  .00000334  00000+0  11234-3 0  9998
2 43577  86.3986 129.4775 0002072  89.3922 270.7511 14.34221125388497
IRIDIUM 159             
1 43578U 18061K   25358.92447227 -.00000029  00000+0 -17576-4 0  9995
2 43578  86.3988 129.5771 0001807  92.4915 267.6488 14.34217776388405
IRIDIUM 180             
1 43922U 19002A   25359.27281088 -.00000010  00000+0 -10704-4 0  9990
2 43922  86.3955  66.3010 0001877  97.0692 263.0717 14.34217767364067
IRIDIUM 176             
1 43923U 19002B   25359.22962678  .00000659  00000+0  10068-3 0  9996
2 43923  86.6080  66.2887 0002237  94.6982 265.4490 14.72247477373659
IRIDIUM 168             
1 43924U 19002C   25358.91762567  .00000190  00000+0  60765-4 0  9997
2 43924  86.3960  66.5224 0002169  98.5362 261.6080 14.34218200363990
IRIDIUM 173             
1 43925U 19002D   25359.25377610  .00000301  00000+0  10052-3 0  9994
2 43925  86.3957  66.2778 0002166 101.9122 258.2316 14.34220091364028
IRIDIUM 169             
1 43926U 19002E   25359.22370570  .00000485  00000+0  15203-3 0  9996
2 43926  86.4222  97.9437 0002653 118.8752 241.2712 14.38607989365218
IRIDIUM 172             
1 43927U 19002F   25359.24744072  .00000119  00000+0  35487-4 0  9992
2 43927  86.3958  66.2878 0002005  95.6518 264.4907 14.34217633364036
IRIDIUM 175             
1 43928U 19002G   25359.02101810  .00000917  00000+0  14142-3 0  9996
2 43928  86.1499   8.0860 0003185  80.9101 279.2476 14.72243113373618
IRIDIUM 171             
1 43929U 19002H   25359.29818880  .00000295  00000+0  98127-4 0  9993
2 43929  86.3966  66.5539 0002448  95.9930 264.1544 14.34219469364039
IRIDIUM 170             
1 43930U 19002J   25358.69206936  .00000940  00000+0  14517-3 0  9998
2 43930  86.6080  66.5169 0002291  91.3729 268.7750 14.72262161373580
IRIDIUM 167             
1 43931U 19002K   25359.22207213 -.00000028  00000+0 -17116-4 0  9996
2 43931  86.3954  66.3190 0002508 100.0073 260.1406 14.34217434364025
IRIDIUM 181             
1 56726U 23068S   25359.08968126  .00000431  00000+0  12197-3 0  9999
2 56726  86.4518 129.5681 0002026  82.5249 277.6182 14.43310426137329
IRIDIUM 177             
1 56727U 23068T   25359.18086067  .00001269  00000+0  16349-3 0  9999
2 56727  86.1953  51.4206 0002163  87.2602 272.8866 14.80238018140623
IRIDIUM 174             
1 56728U 23068U   25359.22346260  .00001063  00000+0  16461-3 0  9996
2 56728  86.6086  66.4245 0002055  91.5173 268.6280 14.72258072140420
IRIDIUM 178             
1 56729U 23068V   25358.69672936  .00001525  00000+0  19723-3 0  9996
2 56729  86.6543  98.3042 0002491  91.1821 268.9687 14.80234079140556
IRIDIUM 179             
1 56730U 23068W   25359.29976998  .00001501  00000+0  19410-3 0  9997
2 56730  86.6785 106.5131 0002375  89.5723 270.5771 14.80230605140644
